$$SOE
2460728.500000000, A.D. 2025-Feb-22 00:00:00.0000, 2.758948276488065E+08, -9.479508259235303E+07, -1.269049290850709E+07,
2460735.500000000, A.D. 2025-Mar-01 00:00:00.0000, 2.782945313690416E+08, -8.092137859898832E+07, -1.391925497790578E+07,
2460742.500000000, A.D. 2025-Mar-08 00:00:00.0000, 2.801413023551654E+08, -6.688701520877898E+07, -1.512035448575199E+07,
2460749.500000000, A.D. 2025-Mar-15 00:00:00.0000, 2.814213356135884E+08, -5.271744865095050E+07, -1.629085827728462E+07,
2460756.500000000, A.D. 2025-Mar-22 00:00:00.0000, 2.821222746371191E+08, -3.843950484496017E+07, -1.742783313613293E+07,
2460763.500000000, A.D. 2025-Mar-29 00:00:00.0000, 2.822333720118361E+08, -2.408128596470610E+07, -1.852836474660802E+07,
2460770.500000000, A.D. 2025-Apr-05 00:00:00.0000, 2.817456452556181E+08, -9.672054393379200E+06, -1.958957792587308E+07,
2460777.500000000, A.D. 2025-Apr-12 00:00:00.0000, 2.806520225852246E+08, 4.757905826478868E+06, -2.060865768105562E+07,
2460784.500000000, A.D. 2025-Apr-19 00:00:00.0000, 2.789474749692605E+08, 1.917744836568679E+07, -2.158287083605040E+07,
2460791.500000000, A.D. 2025-Apr-26 00:00:00.0000, 2.766291313201682E+08, 3.355474317361113E+07, -2.250958791452141E+07,
2460798.500000000, A.D. 2025-May-03 00:00:00.0000, 2.736963736872293E+08, 4.785747219047759E+07, -2.338630489643947E+07,
2460805.500000000, A.D. 2025-May-10 00:00:00.0000, 2.701509095299498E+08, 6.205303953225233E+07, -2.421066443317303E+07,
2460812.500000000, A.D. 2025-May-17 00:00:00.0000, 2.659968185963084E+08, 7.610879285571426E+07, -2.498047609916786E+07,
2460819.500000000, A.D. 2025-May-24 00:00:00.0000, 2.612405726296541E+08, 8.999225211064792E+07, -2.569373527578282E+07,
2460826.500000000, A.D. 2025-May-31 00:00:00.0000, 2.558910270338237E+08, 1.036713418701578E+08, -2.634864027513506E+07,
2460833.500000000, A.D. 2025-Jun-07 00:00:00.0000, 2.499593835331907E+08, 1.171146240849988E+08, -2.694360719630382E+07,
2460840.500000000, A.D. 2025-Jun-14 00:00:00.0000, 2.434591216983860E+08, 1.302915261733438E+08, -2.747728202880084E+07,
2460847.500000000, A.D. 2025-Jun-21 00:00:00.0000, 2.364059016164325E+08, 1.431725568264804E+08, -2.794855012890797E+07,
2460854.500000000, A.D. 2025-Jun-28 00:00:00.0000, 2.288174426427537E+08, 1.557295071718170E+08, -2.835654303060632E+07,
2460861.500000000, A.D. 2025-Jul-05 00:00:00.0000, 2.207133792163240E+08, 1.679356357310220E+08, -2.870064217235392E+07,
2460868.500000000, A.D. 2025-Jul-12 00:00:00.0000, 2.121150956553767E+08, 1.797658331834322E+08, -2.898047947756489E+07,
2460875.500000000, A.D. 2025-Jul-19 00:00:00.0000, 2.030455437101085E+08, 1.911967638075842E+08, -2.919593491790769E+07,
2460882.500000000, A.D. 2025-Jul-26 00:00:00.0000, 1.935290469994775E+08, 2.022069816963212E+08, -2.934713122596227E+07,
2460889.500000000, A.D. 2025-Aug-02 00:00:00.0000, 1.835910964915304E+08, 2.127770206577647E+08, -2.943442597351868E+07,
2460896.500000000, A.D. 2025-Aug-09 00:00:00.0000, 1.732581411674034E+08, 2.228894574122277E+08, -2.945840128836411E+07,
2460903.500000000, A.D. 2025-Aug-16 00:00:00.0000, 1.625573779360871E+08, 2.325289483421423E+08, -2.941985153379701E+07,
2460910.500000000, A.D. 2025-Aug-23 00:00:00.0000, 1.515165448210520E+08, 2.416822407677419E+08, -2.931976931548217E+07,
2460917.500000000, A.D. 2025-Aug-30 00:00:00.0000, 1.401637211106492E+08, 2.503381609819353E+08, -2.915933014215966E+07,
2460924.500000000, A.D. 2025-Sep-06 00:00:00.0000, 1.285271359797914E+08, 2.584875820250807E+08, -2.893987588785522E+07,
2460931.500000000, A.D. 2025-Sep-13 00:00:00.0000, 1.166349863451619E+08, 2.661233710542704E+08, -2.866289745687111E+07,
2460938.500000000, A.D. 2025-Sep-20 00:00:00.0000, 1.045152691733417E+08, 2.732403172608787E+08, -2.833001742781448E+07,
2460945.500000000, A.D. 2025-Sep-27 00:00:00.0000, 9.219563075072791E+07, 2.798350461436986E+08, -2.794297283441401E+07,
2460952.500000000, A.D. 2025-Oct-04 00:00:00.0000, 7.970323182955772E+07, 2.859059233731441E+08, -2.750359812656216E+07,
2460959.500000000, A.D. 2025-Oct-11 00:00:00.0000, 6.706462873582471E+07, 2.914529499463015E+08, -2.701380858724761E+07,
2460966.500000000, A.D. 2025-Oct-18 00:00:00.0000, 5.430567076982854E+07, 2.964776508776228E+08, -2.647558444790873E+07,
2460973.500000000, A.D. 2025-Oct-25 00:00:00.0000, 4.145141373123932E+07, 3.009829597744373E+08, -2.589095586923318E+07,
2460980.500000000, A.D. 2025-Nov-01 00:00:00.0000, 2.852604900662582E+07, 3.049731014298429E+08, -2.526198890719192E+07,
2460987.500000000, A.D. 2025-Nov-08 00:00:00.0000, 1.555284741967107E+07, 3.084534742723259E+08, -2.459077255216654E+07,
2460994.500000000, A.D. 2025-Nov-15 00:00:00.0000, 2.554116983061979E+06, 3.114305342259847E+08, -2.387940690951265E+07,
2461001.500000000, A.D. 2025-Nov-22 00:00:00.0000, -1.044882617512959E+07, 3.139116815556300E+08, -2.312999256227843E+07,
2461008.500000000, A.D. 2025-Nov-29 00:00:00.0000, -2.343567506515336E+07, 3.159051529387888E+08, -2.234462100762661E+07,
2461015.500000000, A.D. 2025-Dec-06 00:00:00.0000, -3.638714077140941E+07, 3.174199194977289E+08, -2.152536594766341E+07,
2461022.500000000, A.D. 2025-Dec-13 00:00:00.0000, -4.928495385786248E+07, 3.184655880567590E+08, -2.067427570832422E+07,
2461029.500000000, A.D. 2025-Dec-20 00:00:00.0000, -6.211185595091205E+07, 3.190523070994778E+08, -1.979336697002587E+07,
2461036.500000000, A.D. 2025-Dec-27 00:00:00.0000, -7.485158370851435E+07, 3.191906803105806E+08, -1.888461944122486E+07,
2461043.500000000, A.D. 2026-Jan-03 00:00:00.0000, -8.748884769415811E+07, 3.188916872171664E+08, -1.794997132375242E+07,
2461050.500000000, A.D. 2026-Jan-10 00:00:00.0000, -1.000093070312187E+08, 3.181666102526554E+08, -1.699131556325006E+07,
2461057.500000000, A.D. 2026-Jan-17 00:00:00.0000, -1.123995405074338E+08, 3.170269680553190E+08, -1.601049684086879E+07,
2461064.500000000, A.D. 2026-Jan-24 00:00:00.0000, -1.246470148666326E+08, 3.154844548502961E+08, -1.500930924019724E+07,
2461071.500000000, A.D. 2026-Jan-31 00:00:00.0000, -1.367400509906692E+08, 3.135508856755050E+08, -1.398949452323154E+07,
2461078.500000000, A.D. 2026-Feb-07 00:00:00.0000, -1.486677885479060E+08, 3.112381471186118E+08, -1.295274095963901E+07,
2461085.500000000, A.D. 2026-Feb-14 00:00:00.0000, -1.604201494074811E+08, 3.085581532421842E+08, -1.190068267080101E+07,
2461092.500000000, A.D. 2026-Feb-21 00:00:00.0000, -1.719877999049381E+08, 3.055228069440605E+08, -1.083489941751671E+07,
2461099.500000000, A.D. 2026-Feb-28 00:00:00.0000, -1.833621134463626E+08, 3.021439675652553E+08, -9.756916582416505E+06,
2461106.500000000, A.D. 2026-Mar-07 00:00:00.0000, -1.945351358438810E+08, 2.984334224519159E+08, -8.668205267073095E+06,
2461113.500000000, A.D. 2026-Mar-14 00:00:00.0000, -2.054995508771815E+08, 2.944028597885144E+08, -7.570182901410237E+06,
2461120.500000000, A.D. 2026-Mar-21 00:00:00.0000, -2.162486445260150E+08, 2.900638452556492E+08, -6.464214248991162E+06,
2461127.500000000, A.D. 2026-Mar-28 00:00:00.0000, -2.267762700684619E+08, 2.854278032208062E+08, -5.351612502983272E+06,
2461134.500000000, A.D. 2026-Apr-04 00:00:00.0000, -2.370768147871185E+08, 2.805060011899596E+08, -4.233640463019460E+06,
2461141.500000000, A.D. 2026-Apr-11 00:00:00.0000, -2.471451681127877E+08, 2.753095368663516E+08, -3.111511817351669E+06,
2461148.500000000, A.D. 2026-Apr-18 00:00:00.0000, -2.569766911216716E+08, 2.698493275346974E+08, -1.986392518996656E+06,
2461155.500000000, A.D. 2026-Apr-25 00:00:00.0000, -2.665671873904134E+08, 2.641361015304864E+08, -8.594022358307987E+05,
2461162.500000000, A.D. 2026-May-02 00:00:00.0000, -2.759128752065947E+08, 2.581803915295013E+08, 2.683841401508898E+05,
2461169.500000000, A.D. 2026-May-09 00:00:00.0000, -2.850103610192695E+08, 2.519925293751807E+08, 1.395934924914390E+06,
2461176.500000000, A.D. 2026-May-16 00:00:00.0000, -2.938566137439666E+08, 2.455826423835699E+08, 2.522260007437900E+06,
2461183.500000000, A.D. 2026-May-23 00:00:00.0000, -3.024489398492464E+08, 2.389606519648557E+08, 3.646409239407375E+06,
2461190.500000000, A.D. 2026-May-30 00:00:00.0000, -3.107849612745551E+08, 2.321362747124912E+08, 4.767471077049762E+06,
2461197.500000000, A.D. 2026-Jun-06 00:00:00.0000, -3.188625964626138E+08, 2.251190225345350E+08, 5.884571245465636E+06,
2461204.500000000, A.D. 2026-Jun-13 00:00:00.0000, -3.266800407989756E+08, 2.179182018870954E+08, 6.996871113011539E+06,
2461211.500000000, A.D. 2026-Jun-20 00:00:00.0000, -3.342357469197527E+08, 2.105429149101729E+08, 8.103566066669598E+06,
2461218.500000000, A.D. 2026-Jun-27 00:00:00.0000, -3.415284065470073E+08, 2.030020620208886E+08, 9.203884020478263E+06,
2461225.500000000, A.D. 2026-Jul-04 00:00:00.0000, -3.485569338050295E+08, 1.953043450980042E+08, 1.029708399709408E+07,
2461232.500000000, A.D. 2026-Jul-11 00:00:00.0000, -3.553204497113288E+08, 1.874582710414599E+08, 1.138245475129740E+07,
2461239.500000000, A.D. 2026-Jul-18 00:00:00.0000, -3.618182676968670E+08, 1.794721556553699E+08, 1.245931343120174E+07,
2461246.500000000, A.D. 2026-Jul-25 00:00:00.0000, -3.680498800793924E+08, 1.713541277879123E+08, 1.352700427662890E+07,
2461253.500000000, A.D. 2026-Aug-01 00:00:00.0000, -3.740149453914425E+08, 1.631121336186697E+08, 1.458489734721977E+07,
2461260.500000000, A.D. 2026-Aug-08 00:00:00.0000, -3.797132762992018E+08, 1.547539410036334E+08, 1.563238725810300E+07,
2461267.500000000, A.D. 2026-Aug-15 00:00:00.0000, -3.851448276496127E+08, 1.462871442809124E+08, 1.666889192195330E+07,
2461274.500000000, A.D. 2026-Aug-22 00:00:00.0000, -3.903096853612838E+08, 1.377191707166837E+08, 1.769385146680552E+07,
2461281.500000000, A.D. 2026-Aug-29 00:00:00.0000, -3.952080584066088E+08, 1.290572871827742E+08, 1.870672742686088E+07,
2461288.500000000, A.D. 2026-Sep-05 00:00:00.0000, -3.998402717114345E+08, 1.203086041689017E+08, 1.970700177560473E+07,
2461295.500000000, A.D. 2026-Sep-12 00:00:00.0000, -4.042067574743102E+08, 1.114800795995064E+08, 2.069417577938199E+07,
$$EOE